NORAD_CAT_ID,OBJECT_NAME,OBJECT_TYPE,EPOCH,MEAN_MOTION,ECCENTRICITY,INCLINATION,RA_OF_ASC_NODE,ARG_OF_PERICENTER,MEAN_ANOMALY,BSTAR,MEAN_MOTION_DOT,MEAN_MOTION_DDOT,TLE_LINE0,TLE_LINE1,TLE_LINE2,SEMIMAJOR_AXIS,PERIOD,APOGEE,PERIGEE,DECAYED
51725.0,STARLINK-3522,PAYLOAD,2022-06-27 14:00:01,15.08821718,0.0001607,53.2166,274.473,44.4983,123.5128,0.00030446,4.558e-05,0.0,0 STARLINK-3522,1 51725U 22016M   22178.58334491  .00004558  00000-0  30446-3 0  9990,2 51725  53.2166 274.4730 0001607  44.4983 123.5128 15.08821718 20586,6917.936,95.439,540.913,538.69,0.0
51725.0,STARLINK-3522,PAYLOAD,2022-06-27 22:00:00,15.08851212,0.0001519,53.2163,272.9759,44.3294,135.2587,-0.0016514,-0.00026482,0.0,0 STARLINK-3522,1 51725U 22016M   22178.91667824 -.00026482  00000-0 -16514-2 0  9997,2 51725  53.2163 272.9759 0001519  44.3294 135.2587 15.08851212  1303,6917.846,95.437,540.762,538.66,0.0
51725.0,STARLINK-3522,PAYLOAD,2022-06-28 14:00:01,15.08845171,0.0001626,53.2165,269.9843,45.5279,157.2418,-0.0021166,-0.00033821,0.0,0 STARLINK-3522,1 51725U 22016M   22179.58334491 -.00033821  00000-0 -21166-2 0  9996,2 51725  53.2165 269.9843 0001626  45.5279 157.2418 15.08845171  1304,6917.865,95.437,540.854,538.605,0.0
51725.0,STARLINK-3522,PAYLOAD,2022-06-28 22:00:00,15.08834129,0.0001565999999999,53.2161,268.4869,48.049,166.3108,-0.0020115,-0.00032153,0.0,0 STARLINK-3522,1 51725U 22016M   22179.91667824 -.00032153  00000-0 -20115-2 0  9992,2 51725  53.2161 268.4869 0001566  48.0490 166.3108 15.08834129  1306,6917.898,95.438,540.847,538.68,0.0
51725.0,STARLINK-3522,PAYLOAD,2022-06-29 14:00:01,15.08813974,0.0001663,53.2159,265.4957,47.3569,190.1521,0.00086514,0.00013498,0.0,0 STARLINK-3522,1 51725U 22016M   22180.58334491  .00013498  00000-0  86514-3 0  9993,2 51725  53.2159 265.4957 0001663  47.3569 190.1521 15.08813974 20888,6917.96,95.439,540.975,538.674,0.0
51725.0,STARLINK-3522,PAYLOAD,2022-06-29 22:00:00,15.08842085,0.0001544,53.2154,263.9982,48.9533,200.125,-0.0019933,-0.00031873,0.0,0 STARLINK-3522,1 51725U 22016M   22180.91667824 -.00031873  00000-0 -19933-2 0  9998,2 51725  53.2154 263.9982 0001544  48.9533 200.1250 15.08842085  1302,6917.874,95.437,540.807,538.6709999999998,0.0
51725.0,STARLINK-3522,PAYLOAD,2022-06-30 14:00:01,15.08819012,0.0001673,53.2151,261.0069,47.8184,224.4316,0.001256,0.00019746,0.0,0 STARLINK-3522,1 51725U 22016M   22181.58334491  .00019746  00000-0  12560-2 0  9995,2 51725  53.2151 261.0069 0001673  47.8184 224.4316 15.08819012  1303,6917.945,95.439,540.967,538.6519999999998,0.0
51725.0,STARLINK-3522,PAYLOAD,2022-06-30 22:00:00,15.08847279,0.0001555,53.2147,259.5093,49.3696,234.4595,-0.0018316,-0.00029326,0.0,0 STARLINK-3522,1 51725U 22016M   22181.91667824 -.00029326  00000-0 -18316-2 0  9993,2 51725  53.2147 259.5093 0001555  49.3696 234.4595 15.08847279  1307,6917.858,95.437,540.799,538.6469999999998,0.0
51725.0,STARLINK-3522,PAYLOAD,2022-07-01 06:00:00,15.08843102,0.0001520999999999,53.2147,258.0125,55.1915,240.2241,8.292799999999999e-05,1.032e-05,0.0,0 STARLINK-3522,1 51725U 22016M   22182.25001157  .00001032  00000-0  82928-4 0  9996,2 51725  53.2147 258.0125 0001521  55.1915 240.2241 15.08843102 21136,6917.871,95.437,540.788,538.684,0.0
51725.0,STARLINK-3522,PAYLOAD,2022-07-01 14:00:01,15.08824134,0.0001715,53.2145,256.5179,47.5817,259.437,0.0016814,0.00026561,0.0,0 STARLINK-3522,1 51725U 22016M   22182.58334491  .00026561  00000-0  16814-2 0  9995,2 51725  53.2145 256.5179 0001715  47.5817 259.4370 15.08824134  1303,6917.929,95.439,540.98,538.607,0.0
51725.0,STARLINK-3522,PAYLOAD,2022-07-01 22:00:00,15.08850998,0.0001597,53.2143,255.0201,48.9452,269.6611,-0.0015255999999999,-0.00024493,0.0,0 STARLINK-3522,1 51725U 22016M   22182.91667824 -.00024493  00000-0 -15256-2 0  9994,2 51725  53.2143 255.0201 0001597  48.9452 269.6611 15.08850998  1307,6917.847,95.437,540.817,538.607,0.0
51725.0,STARLINK-3522,PAYLOAD,2022-07-02 14:00:01,15.08830248,0.0001785,53.2143,252.0286,46.9134,294.9014,0.002064,0.00032705,0.0,0 STARLINK-3522,1 51725U 22016M   22183.58334491  .00032705  00000-0  20640-2 0  9995,2 51725  53.2143 252.0286 0001785  46.9134 294.9014 15.08830248 21330,6917.91,95.438,541.01,538.54,0.0
51725.0,STARLINK-3522,PAYLOAD,2022-07-02 22:00:00,15.08865941,0.0001664,53.2143,250.5305,48.5989,304.8285,-0.00061688,-0.00010099,0.0,0 STARLINK-3522,1 51725U 22016M   22183.91667824 -.00010099  00000-0 -61688-3 0  9993,2 51725  53.2143 250.5305 0001664  48.5989 304.8285 15.08865941  1301,6917.801,95.436,540.817,538.515,0.0
51725.0,STARLINK-3522,PAYLOAD,2022-07-03 14:00:01,15.088513,0.0001819,53.2145,247.539,45.0061,331.6755,-0.0014198,-0.0002282,0.0,0 STARLINK-3522,1 51725U 22016M   22184.58334491 -.00022820  00000-0 -14198-2 0  9996,2 51725  53.2145 247.5390 0001819  45.0061 331.6755 15.08851300 21494,6917.846,95.437,540.969,538.452,0.0
51725.0,STARLINK-3522,PAYLOAD,2022-07-04 00:00:00,15.08798933,0.0001672,53.2147,245.6664,49.8581,71.3257,0.0022788,0.00036125,0.0,0 STARLINK-3522,1 51725U 22016M   22185.00001157  .00036125  00000-0  22788-2 0  9999,2 51725  53.2147 245.6664 0001672  49.8581  71.3257 15.08798933  1300,6918.005999999999,95.44,541.028,538.714,0.0
51725.0,STARLINK-3522,PAYLOAD,2022-07-04 14:00:01,15.08802573,0.0001904,53.2148,243.0496,45.9094,5.5237,0.0026727,0.00042461,0.0,0 STARLINK-3522,1 51725U 22016M   22185.58334491  .00042461  00000-0  26727-2 0  9999,2 51725  53.2148 243.0496 0001904  45.9094   5.5237 15.08802573  1303,6917.995,95.44,541.177,538.543,0.0
51725.0,STARLINK-3522,PAYLOAD,2022-07-04 22:00:00,15.08826962,0.0001747,53.215,241.5514,49.6635,13.3472,0.00026803,3.979e-05,0.0,0 STARLINK-3522,1 51725U 22016M   22185.91667824  .00003979  00000-0  26803-3 0  9992,2 51725  53.2150 241.5514 0001747  49.6635  13.3472 15.08826962 21697,6917.92,95.438,540.994,538.577,0.0
51725.0,STARLINK-3522,PAYLOAD,2022-07-05 14:00:01,15.08815759,0.0001911,53.215,238.5602,45.6834,40.5065,0.0028843,0.00045885,0.0,0 STARLINK-3522,1 51725U 22016M   22186.58334491  .00045885  00000-0  28843-2 0  9994,2 51725  53.2150 238.5602 0001911  45.6834  40.5065 15.08815759  1309,6917.954000000002,95.439,541.1419999999998,538.497,0.0
51725.0,STARLINK-3522,PAYLOAD,2022-07-05 22:00:00,15.08831884,0.0001730999999999,53.2152,237.062,50.2891,47.4905,0.00066682,0.00010338,0.0,0 STARLINK-3522,1 51725U 22016M   22186.91667824  .00010338  00000-0  66682-3 0  9999,2 51725  53.2152 237.0620 0001731  50.2891  47.4905 15.08831884  1306,6917.905,95.438,540.9680000000002,538.573,0.0
51725.0,STARLINK-3522,PAYLOAD,2022-07-06 14:00:01,15.08821511,0.0001901,53.215,234.0708,45.9528,75.0228,0.0027554,0.00043815,0.0,0 STARLINK-3522,1 51725U 22016M   22187.58334491  .00043815  00000-0  27554-2 0  9994,2 51725  53.2150 234.0708 0001901  45.9528  75.0228 15.08821511  1306,6917.937,95.439,541.117,538.487,0.0
51725.0,STARLINK-3522,PAYLOAD,2022-07-06 19:49:32,15.088373,0.0001825,53.2158,232.9801,49.9351,310.1801,0.00013283,1.826e-05,0.0,0 STARLINK-3522,1 51725U 22016M   22187.82606717  .00001826  00000-0  13283-3 0  9995,2 51725  53.2158 232.9801 0001825  49.9351 310.1801 15.08837300 20841,6917.889,95.438,541.016,538.491,0.0
51725.0,STARLINK-3522,PAYLOAD,2022-07-07 03:46:27,15.08838988,0.0001808,53.2157,231.4931,50.7844,309.3309,0.00012826,1.754e-05,0.0,0 STARLINK-3522,1 51725U 22016M   22188.15726693  .00001754  00000-0  12826-3 0  9990,2 51725  53.2157 231.4931 0001808  50.7844 309.3309 15.08838988 22024,6917.8830000000025,95.438,540.999,538.498,0.0
51725.0,STARLINK-3522,PAYLOAD,2022-07-07 11:43:23,15.08843698,0.0001807,53.2157,230.0063,51.4946,308.6208,0.0001329,1.828e-05,0.0,0 STARLINK-3522,1 51725U 22016M   22188.48846464  .00001828  00000-0  13290-3 0  9993,2 51725  53.2157 230.0063 0001807  51.4946 308.6208 15.08843698 20948,6917.869000000002,95.437,540.984,538.484,0.0
51725.0,STARLINK-3522,PAYLOAD,2022-07-07 22:00:00,15.08810397,0.0001648,53.2148,228.0834,50.302,117.0912,0.0013818,0.00021754,0.0,0 STARLINK-3522,1 51725U 22016M   22188.91667824  .00021754  00000-0  13818-2 0  9997,2 51725  53.2148 228.0834 0001648  50.3020 117.0912 15.08810397  1308,6917.971,95.439,540.976,538.696,0.0
51725.0,STARLINK-3522,PAYLOAD,2022-07-08 06:00:02,15.08841934,0.0001729,53.2148,226.5877,51.0079,128.0133,-0.0018492,-0.00029599,0.0,0 STARLINK-3522,1 51725U 22016M   22189.25002315 -.00029599  00000-0 -18492-2 0  9993,2 51725  53.2148 226.5877 0001729  51.0079 128.0133 15.08841934 22198,6917.874,95.437,540.936,538.543,0.0
51725.0,STARLINK-3522,PAYLOAD,2022-07-08 11:34:11,15.08829297,0.0001861,53.2157,225.546,51.0081,309.1077,-6.8316e-05,-1.375e-05,0.0,0 STARLINK-3522,1 51725U 22016M   22189.48207776 -.00001375  00000-0 -68316-4 0  9990,2 51725  53.2157 225.5460 0001861  51.0081 309.1077 15.08829297 22226,6917.913000000001,95.438,541.066,538.491,0.0
51725.0,STARLINK-3522,PAYLOAD,2022-07-08 22:00:01,15.08810289,0.0001635,53.2143,223.5942,49.502,152.67700000000005,0.0022177,0.00035155,0.0,0 STARLINK-3522,1 51725U 22016M   22189.91668981  .00035155  00000-0  22177-2 0  9991,2 51725  53.2143 223.5942 0001635  49.5020 152.6770 15.08810289  1306,6917.971,95.439,540.967,538.705,0.0
51725.0,STARLINK-3522,PAYLOAD,2022-07-09 14:00:01,15.08816987,0.0001861,53.214,220.6033,44.5109,180.7571,0.0017984,0.00028432,0.0,0 STARLINK-3522,1 51725U 22016M   22190.58334491  .00028432  00000-0  17984-2 0  9992,2 51725  53.2140 220.6033 0001861  44.5109 180.7571 15.08816987  1308,6917.951,95.439,541.1030000000002,538.528,0.0
51725.0,STARLINK-3522,PAYLOAD,2022-07-09 16:00:00,15.08842975,0.0001827,53.2139,220.2287,44.7818,273.3738,-0.0014847,-0.00023842,0.0,0 STARLINK-3522,1 51725U 22016M   22190.66667824 -.00023842  00000-0 -14847-2 0  9997,2 51725  53.2139 220.2287 0001827  44.7818 273.3738 15.08842975 22408,6917.871,95.437,541.0,538.472,0.0
